{"type": "FeatureCollection", "features": [ {"type": "Feature", "properties": {"norad_id": 32384, "name": "GPS BIIRM-5 (PRN 29)", "group": "gps-ops", "lat": 1.1088100687965388, "lon": 100.79540002012133, "alt_km": 20098.82389521646, "timestamp": "2025-12-14T07:33:19.735968+00:00", "meta": {"OBJECT_NAME": "GPS BIIRM-5 (PRN 29)", "OBJECT_ID": "2007-062A", "EPOCH": "2025-12-13T07:26:31.680096", "MEAN_MOTION": 2.00577339, "ECCENTRICITY": 0.00322377, "INCLINATION": 55.1816, "RA_OF_ASC_NODE": 281.623, "ARG_OF_PERICENTER": 162.4378, "MEAN_ANOMALY": 10.5516, "EPHEMERIS_TYPE": 0, "CLASSIFICATION_TYPE": "U", "NORAD_CAT_ID": 32384, "ELEMENT_SET_NO": 999, "REV_AT_EPOCH": 13178, "BSTAR": 0, "MEAN_MOTION_DOT": -8e-07, "MEAN_MOTION_DDOT": 0}, "tle": {"line1": "1 32384U 07062A   25347.31008889 -.00000080  00000+0  00000+0 0  9990", "line2": "2 32384  55.1816 281.6230 0032237 162.4378  10.5516  2.00577339131782"}}, "geometry": {"type": "Point", "coordinates": [100.79540002012133, 1.1088100687965388]}}, {"type": "Feature", "properties": {"norad_id": 32711, "name": "GPS BIIRM-6 (PRN 07)", "group": "gps-ops", "lat": 52.89076153281688, "lon": -93.5267442076411, "alt_km": 20604.74312437428, "timestamp": "2025-12-14T07:33:19.735980+00:00", "meta": {"OBJECT_NAME": "GPS BIIRM-6 (PRN 07)", "OBJECT_ID": "2008-012A", "EPOCH": "2025-12-12T16:10:17.016384", "MEAN_MOTION": 2.00565624, "ECCENTRICITY": 0.02024443, "INCLINATION": 54.4771, "RA_OF_ASC_NODE": 157.3754, "ARG_OF_PERICENTER": 244.95, "MEAN_ANOMALY": 112.9478, "EPHEMERIS_TYPE": 0, "CLASSIFICATION_TYPE": "U", "NORAD_CAT_ID": 32711, "ELEMENT_SET_NO": 999, "REV_AT_EPOCH": 13001, "BSTAR": 0, "MEAN_MOTION_DOT": 9.7e-07, "MEAN_MOTION_DDOT": 0}, "tle": {"line1": "1 32711U 08012A   25346.67380806  .00000097  00000+0  00000+0 0  9997", "line2": "2 32711  54.4771 157.3754 0202444 244.9500 112.9478  2.00565624130013"}}, "geometry": {"type": "Point", "coordinates": [-93.5267442076411, 52.89076153281688]}}, {"type": "Feature", "properties": {"norad_id": 35752, "name": "GPS BIIRM-8 (PRN 05)", "group": "gps-ops", "lat": 44.01145648775894, "lon": 174.25017877471998, "alt_km": 20073.098853918083, "timestamp": "2025-12-14T07:33:19.735992+00:00", "meta": {"OBJECT_NAME": "GPS BIIRM-8 (PRN 05)", "OBJECT_ID": "2009-043A", "EPOCH": "2025-12-13T15:33:53.607168", "MEAN_MOTION": 2.00565679, "ECCENTRICITY": 0.00517811, "INCLINATION": 56.0916, "RA_OF_ASC_NODE": 34.7471, "ARG_OF_PERICENTER": 81.8933, "MEAN_ANOMALY": 279.8016, "EPHEMERIS_TYPE": 0, "CLASSIFICATION_TYPE": "U", "NORAD_CAT_ID": 35752, "ELEMENT_SET_NO": 999, "REV_AT_EPOCH": 11964, "BSTAR": 0, "MEAN_MOTION_DOT": -9.6e-07, "MEAN_MOTION_DDOT": 0}, "tle": {"line1": "1 35752U 09043A   25347.64853712 -.00000096  00000+0  00000+0 0  9999", "line2": "2 35752  56.0916  34.7471 0051781  81.8933 279.8016  2.00565679119645"}}, "geometry": {"type": "Point", "coordinates": [174.25017877471998, 44.01145648775894]}}, {"type": "Feature", "properties": {"norad_id": 36585, "name": "GPS BIIF-1  (PRN 25)", "group": "gps-ops", "lat": -45.35072182744257, "lon": 82.69209088725947, "alt_km": 20522.703856582582, "timestamp": "2025-12-14T07:33:19.736004+00:00", "meta": {"OBJECT_NAME": "GPS BIIF-1  (PRN 25)", "OBJECT_ID": "2010-022A", "EPOCH": "2025-12-13T05:27:57.415104", "MEAN_MOTION": 2.00553278, "ECCENTRICITY": 0.01261295, "INCLINATION": 54.3, "RA_OF_ASC_NODE": 216.0542, "ARG_OF_PERICENTER": 65.0762, "MEAN_ANOMALY": 111.1577, "EPHEMERIS_TYPE": 0, "CLASSIFICATION_TYPE": "U", "NORAD_CAT_ID": 36585, "ELEMENT_SET_NO": 999, "REV_AT_EPOCH": 11386, "BSTAR": 0, "MEAN_MOTION_DOT": 3.5e-07, "MEAN_MOTION_DDOT": 0}, "tle": {"line1": "1 36585U 10022A   25347.22774786  .00000035  00000+0  00000+0 0  9992", "line2": "2 36585  54.3000 216.0542 0126129  65.0762 111.1577  2.00553278113862"}}, "geometry": {"type": "Point", "coordinates": [82.69209088725947, -45.35072182744257]}}, {"type": "Feature", "properties": {"norad_id": 38833, "name": "GPS BIIF-3  (PRN 24)", "group": "gps-ops", "lat": -18.60354067288101, "lon": 136.7596795667815, "alt_km": 20155.26291911204, "timestamp": "2025-12-14T07:33:19.736016+00:00", "meta": {"OBJECT_NAME": "GPS BIIF-3  (PRN 24)", "OBJECT_ID": "2012-053A", "EPOCH": "2025-12-12T20:25:41.380896", "MEAN_MOTION": 2.00565025, "ECCENTRICITY": 0.01758679, "INCLINATION": 53.5578, "RA_OF_ASC_NODE": 151.234, "ARG_OF_PERICENTER": 63.9869, "MEAN_ANOMALY": 297.8174, "EPHEMERIS_TYPE": 0, "CLASSIFICATION_TYPE": "U", "NORAD_CAT_ID": 38833, "ELEMENT_SET_NO": 999, "REV_AT_EPOCH": 9570, "BSTAR": 0, "MEAN_MOTION_DOT": 9.1e-07, "MEAN_MOTION_DDOT": 0}, "tle": {"line1": "1 38833U 12053A   25346.85117339  .00000091  00000+0  00000+0 0  9991", "line2": "2 38833  53.5578 151.2340 0175867  63.9869 297.8174  2.00565025 95705"}}, "geometry": {"type": "Point", "coordinates": [136.7596795667815, -18.60354067288101]}}, {"type": "Feature", "properties": {"norad_id": 39166, "name": "GPS BIIF-4  (PRN 27)", "group": "gps-ops", "lat": 52.64123583073387, "lon": -15.301052221823335, "alt_km": 19852.85576243453, "timestamp": "2025-12-14T07:33:19.736028+00:00", "meta": {"OBJECT_NAME": "GPS BIIF-4  (PRN 27)", "OBJECT_ID": "2013-023A", "EPOCH": "2025-12-13T05:07:46.586496", "MEAN_MOTION": 2.0056518, "ECCENTRICITY": 0.01379131, "INCLINATION": 54.6516, "RA_OF_ASC_NODE": 276.5489, "ARG_OF_PERICENTER": 48.6136, "MEAN_ANOMALY": 312.5751, "EPHEMERIS_TYPE": 0, "CLASSIFICATION_TYPE": "U", "NORAD_CAT_ID": 39166, "ELEMENT_SET_NO": 999, "REV_AT_EPOCH": 9215, "BSTAR": 0, "MEAN_MOTION_DOT": -7.6e-07, "MEAN_MOTION_DDOT": 0}, "tle": {"line1": "1 39166U 13023A   25347.21373364 -.00000076  00000+0  00000+0 0  9996", "line2": "2 39166  54.6516 276.5489 0137913  48.6136 312.5751  2.00565180 92155"}}, "geometry": {"type": "Point", "coordinates": [-15.301052221823335, 52.64123583073387]}}, {"type": "Feature", "properties": {"norad_id": 39533, "name": "GPS BIIF-5  (PRN 30)", "group": "gps-ops", "lat": 52.02273918649427, "lon": -132.36670358726252, "alt_km": 20353.53048494757, "timestamp": "2025-12-14T07:33:19.736039+00:00", "meta": {"OBJECT_NAME": "GPS BIIF-5  (PRN 30)", "OBJECT_ID": "2014-008A", "EPOCH": "2025-12-12T17:01:11.546688", "MEAN_MOTION": 2.00574462, "ECCENTRICITY": 0.00792236, "INCLINATION": 53.6311, "RA_OF_ASC_NODE": 156.9259, "ARG_OF_PERICENTER": 226.5032, "MEAN_ANOMALY": 132.848, "EPHEMERIS_TYPE": 0, "CLASSIFICATION_TYPE": "U", "NORAD_CAT_ID": 39533, "ELEMENT_SET_NO": 999, "REV_AT_EPOCH": 8594, "BSTAR": 0, "MEAN_MOTION_DOT": 9.5e-07, "MEAN_MOTION_DDOT": 0}, "tle": {"line1": "1 39533U 14008A   25346.70916142  .00000095  00000+0  00000+0 0  9998", "line2": "2 39533  53.6311 156.9259 0079223 226.5032 132.8480  2.00574462 85946"}}, "geometry": {"type": "Point", "coordinates": [-132.36670358726252, 52.02273918649427]}}, {"type": "Feature", "properties": {"norad_id": 39741, "name": "GPS BIIF-6  (PRN 06)", "group": "gps-ops", "lat": -42.5266429526518, "lon": -164.02328723460042, "alt_km": 20177.099725057735, "timestamp": "2025-12-14T07:33:19.736051+00:00", "meta": {"OBJECT_NAME": "GPS BIIF-6  (PRN 06)", "OBJECT_ID": "2014-026A", "EPOCH": "2025-12-12T23:49:07.978944", "MEAN_MOTION": 2.00561385, "ECCENTRICITY": 0.00391904, "INCLINATION": 56.5834, "RA_OF_ASC_NODE": 338.7665, "ARG_OF_PERICENTER": 318.6983, "MEAN_ANOMALY": 41.0184, "EPHEMERIS_TYPE": 0, "CLASSIFICATION_TYPE": "U", "NORAD_CAT_ID": 39741, "ELEMENT_SET_NO": 999, "REV_AT_EPOCH": 8480, "BSTAR": 0, "MEAN_MOTION_DOT": -8.6e-07, "MEAN_MOTION_DDOT": 0}, "tle": {"line1": "1 39741U 14026A   25346.99245346 -.00000086  00000+0  00000+0 0  9992", "line2": "2 39741  56.5834 338.7665 0039190 318.6983  41.0184  2.00561385 84803"}}, "geometry": {"type": "Point", "coordinates": [-164.02328723460042, -42.5266429526518]}}, {"type": "Feature", "properties": {"norad_id": 40105, "name": "GPS BIIF-7  (PRN 09)", "group": "gps-ops", "lat": 6.290098326547817, "lon": -88.55802532840032, "alt_km": 20127.698458543495, "timestamp": "2025-12-14T07:33:19.736064+00:00", "meta": {"OBJECT_NAME": "GPS BIIF-7  (PRN 09)", "OBJECT_ID": "2014-045A", "EPOCH": "2025-12-12T01:59:18.865536", "MEAN_MOTION": 2.00572516, "ECCENTRICITY": 0.00326941, "INCLINATION": 55.2287, "RA_OF_ASC_NODE": 95.9251, "ARG_OF_PERICENTER": 119.8618, "MEAN_ANOMALY": 240.4523, "EPHEMERIS_TYPE": 0, "CLASSIFICATION_TYPE": "U", "NORAD_CAT_ID": 40105, "ELEMENT_SET_NO": 999, "REV_AT_EPOCH": 8232, "BSTAR": 0, "MEAN_MOTION_DOT": -9e-08, "MEAN_MOTION_DDOT": 0}, "tle": {"line1": "1 40105U 14045A   25346.08285724 -.00000009  00000+0  00000+0 0  9998", "line2": "2 40105  55.2287  95.9251 0032694 119.8618 240.4523  2.00572516 82323"}}, "geometry": {"type": "Point", "coordinates": [-88.55802532840032, 6.290098326547817]}}, {"type": "Feature", "properties": {"norad_id": 40294, "name": "GPS BIIF-8  (PRN 03)", "group": "gps-ops", "lat": -55.642515156431635, "lon": -69.18129177291864, "alt_km": 20346.549401708686, "timestamp": "2025-12-14T07:33:19.736075+00:00", "meta": {"OBJECT_NAME": "GPS BIIF-8  (PRN 03)", "OBJECT_ID": "2014-068A", "EPOCH": "2025-12-13T10:57:14.379552", "MEAN_MOTION": 2.00564944, "ECCENTRICITY": 0.00607799, "INCLINATION": 56.8584, "RA_OF_ASC_NODE": 38.1182, "ARG_OF_PERICENTER": 69.1634, "MEAN_ANOMALY": 291.5378, "EPHEMERIS_TYPE": 0, "CLASSIFICATION_TYPE": "U", "NORAD_CAT_ID": 40294, "ELEMENT_SET_NO": 999, "REV_AT_EPOCH": 8148, "BSTAR": 0, "MEAN_MOTION_DOT": -9.5e-07, "MEAN_MOTION_DDOT": 0}, "tle": {"line1": "1 40294U 14068A   25347.45641643 -.00000095  00000+0  00000+0 0  9995", "line2": "2 40294  56.8584  38.1182 0060779  69.1634 291.5378  2.00564944 81488"}}, "geometry": {"type": "Point", "coordinates": [-69.18129177291864, -55.642515156431635]}}]}